start=new Date('2022-01-08T00:00:00.000Z').valueOf();
sats=[{"MEAN_MOTION_DDOT":"0.0000000000000","TIME_SYSTEM":"UTC","SEMIMAJOR_AXIS":"6925.378","BSTAR":"0.00007201700000","NORAD_CAT_ID":"46564","REV_AT_EPOCH":"7040","MEAN_ANOMALY":"262.9700","RA_OF_ASC_NODE":"148.6807","RCS_SIZE":"LARGE","ELEMENT_SET_NO":"999","COUNTRY_CODE":"US","REF_FRAME":"TEME","ECCENTRICITY":"0.00022010","OBJECT_NAME":"STARLINK-1733","EPOCH":"2022-01-07T19:03:59.841504","APOAPSIS":"548.767","CLASSIFICATION_TYPE":"U","CENTER_NAME":"EARTH","PERIOD":"95.593","LAUNCH_DATE":"2020-10-06","MEAN_MOTION_DOT":"0.00000791","TLE_LINE2":"2 46564  53.0546 148.6807 0002201  97.1539 262.9700 15.06390423 70403","PERIAPSIS":"545.719","ARG_OF_PERICENTER":"97.1539","OBJECT_TYPE":"PAYLOAD","DECAY_DATE":null,"MEAN_MOTION":"15.06390423","MEAN_ELEMENT_THEORY":"SGP4","SITE":"AFETR","OBJECT_ID":"2020-070AJ","EPHEMERIS_TYPE":"0","INCLINATION":"53.0546","FILE":"3266804","GP_ID":"193426126","TLE_LINE1":"1 46564U 20070AJ  22007.79444261  .00000791  00000-0  72017-4 0  9990"},{"COUNTRY_CODE":"US","REF_FRAME":"TEME","ECCENTRICITY":"0.00019490","OBJECT_NAME":"STARLINK-1735","APOAPSIS":"548.584","CLASSIFICATION_TYPE":"U","EPOCH":"2022-01-07T21:43:13.664064","LAUNCH_DATE":"2020-10-06","PERIOD":"95.593","CENTER_NAME":"EARTH","BSTAR":"-0.00003590500000","SEMIMAJOR_AXIS":"6925.369","NORAD_CAT_ID":"46565","MEAN_MOTION_DDOT":"0.0000000000000","TIME_SYSTEM":"UTC","RCS_SIZE":"LARGE","REV_AT_EPOCH":"7011","RA_OF_ASC_NODE":"148.1602","MEAN_ANOMALY":"267.4843","ELEMENT_SET_NO":"999","MEAN_ELEMENT_THEORY":"SGP4","MEAN_MOTION":"15.06393310","EPHEMERIS_TYPE":"0","SITE":"AFETR","OBJECT_ID":"2020-070AK","INCLINATION":"53.0600","TLE_LINE1":"1 46565U 20070AK  22007.90501926 -.00000816  00000-0 -35905-4 0  9991","FILE":"3266761","GP_ID":"193402518","MEAN_MOTION_DOT":"-0.00000816","PERIAPSIS":"545.884","TLE_LINE2":"2 46565  53.0600 148.1602 0001949  92.6369 267.4843 15.06393310 70116","ARG_OF_PERICENTER":"92.6369","OBJECT_TYPE":"PAYLOAD","DECAY_DATE":null},{"REF_FRAME":"TEME","COUNTRY_CODE":"US","ECCENTRICITY":"0.00017880","OBJECT_NAME":"STARLINK-1740","CLASSIFICATION_TYPE":"U","APOAPSIS":"548.463","EPOCH":"2022-01-07T18:10:55.319808","LAUNCH_DATE":"2020-10-06","PERIOD":"95.592","CENTER_NAME":"EARTH","NORAD_CAT_ID":"46566","BSTAR":"-0.00002753300000","SEMIMAJOR_AXIS":"6925.360","TIME_SYSTEM":"UTC","MEAN_MOTION_DDOT":"0.0000000000000","RCS_SIZE":"LARGE","RA_OF_ASC_NODE":"148.8416","MEAN_ANOMALY":"270.9415","REV_AT_EPOCH":"7039","ELEMENT_SET_NO":"999","MEAN_ELEMENT_THEORY":"SGP4","MEAN_MOTION":"15.06396226","EPHEMERIS_TYPE":"0","OBJECT_ID":"2020-070AL","SITE":"AFETR","INCLINATION":"53.0527","TLE_LINE1":"1 46566U 20070AL  22007.75758472 -.00000692  00000-0 -27533-4 0  9995","GP_ID":"193424639","FILE":"3266804","PERIAPSIS":"545.987","TLE_LINE2":"2 46566  53.0527 148.8416 0001788  89.1778 270.9415 15.06396226 70394","MEAN_MOTION_DOT":"-0.00000692","ARG_OF_PERICENTER":"89.1778","DECAY_DATE":null,"OBJECT_TYPE":"PAYLOAD"},{"OBJECT_NAME":"STARLINK-1741","REF_FRAME":"TEME","COUNTRY_CODE":"US","ECCENTRICITY":"0.00019330","CENTER_NAME":"EARTH","PERIOD":"95.593","LAUNCH_DATE":"2020-10-06","EPOCH":"2022-01-07T20:28:55.160544","APOAPSIS":"548.576","CLASSIFICATION_TYPE":"U","TIME_SYSTEM":"UTC","MEAN_MOTION_DDOT":"0.0000000000000","SEMIMAJOR_AXIS":"6925.372","BSTAR":"-0.00005151300000","NORAD_CAT_ID":"46567","ELEMENT_SET_NO":"999","REV_AT_EPOCH":"7041","MEAN_ANOMALY":"263.9432","RA_OF_ASC_NODE":"148.4204","RCS_SIZE":"LARGE","SITE":"AFETR","OBJECT_ID":"2020-070AM","EPHEMERIS_TYPE":"0","MEAN_MOTION":"15.06392391","MEAN_ELEMENT_THEORY":"SGP4","FILE":"3266804","GP_ID":"193425887","TLE_LINE1":"1 46567U 20070AM  22007.85341621 -.00001049  00000-0 -51513-4 0  9993","INCLINATION":"53.0543","MEAN_MOTION_DOT":"-0.00001049","PERIAPSIS":"545.898","TLE_LINE2":"2 46567  53.0543 148.4204 0001933  96.1777 263.9432 15.06392391 70416","OBJECT_TYPE":"PAYLOAD","DECAY_DATE":null,"ARG_OF_PERICENTER":"96.1777"},{"ELEMENT_SET_NO":"999","RA_OF_ASC_NODE":"135.2402","MEAN_ANOMALY":"275.0773","REV_AT_EPOCH":"7059","RCS_SIZE":"LARGE","TIME_SYSTEM":"UTC","MEAN_MOTION_DDOT":"0.0000000000000","NORAD_CAT_ID":"46568","SEMIMAJOR_AXIS":"6801.469","BSTAR":"0.00069990000000","CENTER_NAME":"EARTH","PERIOD":"93.039","LAUNCH_DATE":"2020-10-06","EPOCH":"2022-01-07T19:41:49.021728","CLASSIFICATION_TYPE":"U","APOAPSIS":"428.180","OBJECT_NAME":"STARLINK-1743","COUNTRY_CODE":"US","ECCENTRICITY":"0.00071250","REF_FRAME":"TEME","DECAY_DATE":null,"OBJECT_TYPE":"PAYLOAD","ARG_OF_PERICENTER":"85.1047","PERIAPSIS":"418.488","TLE_LINE2":"2 46568  53.0516 135.2402 0007125  85.1047 275.0773 15.47742262 70590","MEAN_MOTION_DOT":"0.00036614","GP_ID":"193425627","FILE":"3266804","TLE_LINE1":"1 46568U 20070AN  22007.82070627  .00036614  00000-0  69990-3 0  9997","INCLINATION":"53.0516","OBJECT_ID":"2020-070AN","SITE":"AFETR","EPHEMERIS_TYPE":"0","MEAN_MOTION":"15.47742262","MEAN_ELEMENT_THEORY":"SGP4"},{"PERIAPSIS":"545.949","TLE_LINE2":"2 46569  53.0539 148.6331 0001860  93.3809 266.7393 15.06392362 70404","MEAN_MOTION_DOT":"-0.00000997","DECAY_DATE":null,"OBJECT_TYPE":"PAYLOAD","ARG_OF_PERICENTER":"93.3809","EPHEMERIS_TYPE":"0","OBJECT_ID":"2020-070AP","SITE":"AFETR","MEAN_ELEMENT_THEORY":"SGP4","MEAN_MOTION":"15.06392362","TLE_LINE1":"1 46569U 20070AP  22007.80181183 -.00000997  00000-0 -48067-4 0  9996","GP_ID":"193424889","FILE":"3266804","INCLINATION":"53.0539","NORAD_CAT_ID":"46569","SEMIMAJOR_AXIS":"6925.372","BSTAR":"-0.00004806700000","MEAN_MOTION_DDOT":"0.0000000000000","TIME_SYSTEM":"UTC","ELEMENT_SET_NO":"999","RCS_SIZE":"LARGE","RA_OF_ASC_NODE":"148.6331","MEAN_ANOMALY":"266.7393","REV_AT_EPOCH":"7040","OBJECT_NAME":"STARLINK-1747","COUNTRY_CODE":"US","REF_FRAME":"TEME","ECCENTRICITY":"0.00018600","PERIOD":"95.593","LAUNCH_DATE":"2020-10-06","CENTER_NAME":"EARTH","APOAPSIS":"548.525","CLASSIFICATION_TYPE":"U","EPOCH":"2022-01-07T19:14:36.542112"},{"CENTER_NAME":"EARTH","PERIOD":"95.592","LAUNCH_DATE":"2020-10-06","EPOCH":"2022-01-07T17:01:54.922080","APOAPSIS":"548.479","CLASSIFICATION_TYPE":"U","OBJECT_NAME":"STARLINK-1748","COUNTRY_CODE":"US","ECCENTRICITY":"0.00018190","REF_FRAME":"TEME","ELEMENT_SET_NO":"999","REV_AT_EPOCH":"7038","RA_OF_ASC_NODE":"149.0392","MEAN_ANOMALY":"270.3693","RCS_SIZE":"LARGE","MEAN_MOTION_DDOT":"0.0000000000000","TIME_SYSTEM":"UTC","SEMIMAJOR_AXIS":"6925.354","BSTAR":"-0.00003101600000","NORAD_CAT_ID":"46570","FILE":"3266804","GP_ID":"193425139","TLE_LINE1":"1 46570U 20070AQ  22007.70966345 -.00000744  00000-0 -31016-4 0  9994","INCLINATION":"53.0559","SITE":"AFETR","OBJECT_ID":"2020-070AQ","EPHEMERIS_TYPE":"0","MEAN_MOTION":"15.06398159","MEAN_ELEMENT_THEORY":"SGP4","OBJECT_TYPE":"PAYLOAD","DECAY_DATE":null,"ARG_OF_PERICENTER":"89.7504","MEAN_MOTION_DOT":"-0.00000744","TLE_LINE2":"2 46570  53.0559 149.0392 0001819  89.7504 270.3693 15.06398159 70386","PERIAPSIS":"545.959"},{"MEAN_ELEMENT_THEORY":"SGP4","MEAN_MOTION":"15.65192412","EPHEMERIS_TYPE":"0","SITE":"AFETR","OBJECT_ID":"2020-070AR","INCLINATION":"53.0553","TLE_LINE1":"1 46571U 20070AR  22007.77978358  .00095150  00000-0  93821-3 0  9993","FILE":"3266804","GP_ID":"193425388","MEAN_MOTION_DOT":"0.00095150","PERIAPSIS":"370.992","TLE_LINE2":"2 46571  53.0553 135.0087 0002512  26.2420 333.8721 15.65192412 70590","ARG_OF_PERICENTER":"26.2420","OBJECT_TYPE":"PAYLOAD","DECAY_DATE":null,"REF_FRAME":"TEME","COUNTRY_CODE":"US","ECCENTRICITY":"0.00025120","OBJECT_NAME":"STARLINK-1753","CLASSIFICATION_TYPE":"U","APOAPSIS":"374.383","EPOCH":"2022-01-07T18:42:53.301312","PERIOD":"92.001","LAUNCH_DATE":"2020-10-06","CENTER_NAME":"EARTH","SEMIMAJOR_AXIS":"6750.822","BSTAR":"0.00093821000000","NORAD_CAT_ID":"46571","MEAN_MOTION_DDOT":"0.0000000000000","TIME_SYSTEM":"UTC","RCS_SIZE":"LARGE","REV_AT_EPOCH":"7059","RA_OF_ASC_NODE":"135.0087","MEAN_ANOMALY":"333.8721","ELEMENT_SET_NO":"999"},{"TIME_SYSTEM":"UTC","MEAN_MOTION_DDOT":"0.0000000000000","NORAD_CAT_ID":"46572","SEMIMAJOR_AXIS":"6925.355","BSTAR":"0.00006419800000","ELEMENT_SET_NO":"999","RA_OF_ASC_NODE":"168.4736","MEAN_ANOMALY":"274.8313","REV_AT_EPOCH":"7012","RCS_SIZE":"LARGE","OBJECT_NAME":"STARLINK-1531","ECCENTRICITY":"0.00021810","COUNTRY_CODE":"US","REF_FRAME":"TEME","CENTER_NAME":"EARTH","PERIOD":"95.592","LAUNCH_DATE":"2020-10-06","EPOCH":"2022-01-07T20:10:20.744832","APOAPSIS":"548.730","CLASSIFICATION_TYPE":"U","PERIAPSIS":"545.709","TLE_LINE2":"2 46572  53.0541 168.4736 0002181  85.2925 274.8313 15.06397936 70129","MEAN_MOTION_DOT":"0.00000675","DECAY_DATE":null,"OBJECT_TYPE":"PAYLOAD","ARG_OF_PERICENTER":"85.2925","OBJECT_ID":"2020-070AS","SITE":"AFETR","EPHEMERIS_TYPE":"0","MEAN_MOTION":"15.06397936","MEAN_ELEMENT_THEORY":"SGP4","GP_ID":"193426127","FILE":"3266804","TLE_LINE1":"1 46572U 20070AS  22007.84051788  .00000675  00000-0  64198-4 0  9995","INCLINATION":"53.0541"},{"REV_AT_EPOCH":"7033","MEAN_ANOMALY":"268.6065","RA_OF_ASC_NODE":"153.5599","RCS_SIZE":"LARGE","ELEMENT_SET_NO":"999","TIME_SYSTEM":"UTC","MEAN_MOTION_DDOT":"0.0000000000000","BSTAR":"-0.00004495600000","SEMIMAJOR_AXIS":"6925.369","NORAD_CAT_ID":"46573","EPOCH":"2022-01-07T19:37:50.054880","APOAPSIS":"548.743","CLASSIFICATION_TYPE":"U","CENTER_NAME":"EARTH","LAUNCH_DATE":"2020-10-06","PERIOD":"95.593","COUNTRY_CODE":"US","REF_FRAME":"TEME","ECCENTRICITY":"0.00021790","OBJECT_NAME":"STARLINK-1650","ARG_OF_PERICENTER":"91.5173","OBJECT_TYPE":"PAYLOAD","DECAY_DATE":null,"MEAN_MOTION_DOT":"-0.00000951","PERIAPSIS":"545.725","TLE_LINE2":"2 46573  53.0537 153.5599 0002179  91.5173 268.6065 15.06393243 70334","INCLINATION":"53.0537","FILE":"3266804","GP_ID":"193424390","TLE_LINE1":"1 46573U 20070AT  22007.81794045 -.00000951  00000-0 -44956-4 0  9992","MEAN_MOTION":"15.06393243","MEAN_ELEMENT_THEORY":"SGP4","SITE":"AFETR","OBJECT_ID":"2020-070AT","EPHEMERIS_TYPE":"0"}];
